start=new Date('2022-05-18T00:00:00.000Z').valueOf();
sats=[{"PERIAPSIS":"536.133","MEAN_ANOMALY":"335.6170","MEAN_MOTION":"15.09670253","SEMIMAJOR_AXIS":"6915.344","RA_OF_ASC_NODE":"58.5255","GP_ID":"203784112","OBJECT_NAME":"STARLINK-3397","CLASSIFICATION_TYPE":"U","FILE":"3450137","APOAPSIS":"538.285","CENTER_NAME":"EARTH","TLE_LINE1":"1 51115U 22005M   22137.58335648 -.00647594  00000-0 -42418-1 0  9996","EPOCH":"2022-05-17T14:00:01.999872","DECAY_DATE":null,"REV_AT_EPOCH":"130","TLE_LINE2":"2 51115  53.2174  58.5255 0001556  45.5453 335.6170 15.09670253  1307","OBJECT_TYPE":"PAYLOAD","ARG_OF_PERICENTER":"45.5453","SITE":"AFETR","EPHEMERIS_TYPE":"0","REF_FRAME":"TEME","OBJECT_ID":"2022-005M","MEAN_ELEMENT_THEORY":"SGP4","MEAN_MOTION_DOT":"-0.00647594","BSTAR":"-0.04241800000000","MEAN_MOTION_DDOT":"0.0000000000000","ELEMENT_SET_NO":"999","RCS_SIZE":"LARGE","PERIOD":"95.385","NORAD_CAT_ID":"51115","LAUNCH_DATE":"2022-01-19","COUNTRY_CODE":"US","ECCENTRICITY":"0.00015560","INCLINATION":"53.2174","TIME_SYSTEM":"UTC"},{"ECCENTRICITY":"0.00020000","COUNTRY_CODE":"US","LAUNCH_DATE":"2022-01-19","PERIOD":"95.438","RCS_SIZE":"LARGE","NORAD_CAT_ID":"51116","ELEMENT_SET_NO":"999","MEAN_MOTION_DDOT":"0.0000000000000","BSTAR":"-0.00028643000000","MEAN_MOTION_DOT":"-0.00004844","OBJECT_ID":"2022-005N","MEAN_ELEMENT_THEORY":"SGP4","TIME_SYSTEM":"UTC","INCLINATION":"53.2176","APOAPSIS":"541.130","CENTER_NAME":"EARTH","FILE":"3450456","OBJECT_NAME":"STARLINK-3243","GP_ID":"203791592","CLASSIFICATION_TYPE":"U","RA_OF_ASC_NODE":"57.3996","SEMIMAJOR_AXIS":"6917.881","MEAN_MOTION":"15.08839757","MEAN_ANOMALY":"183.0846","PERIAPSIS":"538.363","REF_FRAME":"TEME","EPHEMERIS_TYPE":"0","ARG_OF_PERICENTER":"37.6213","SITE":"AFETR","OBJECT_TYPE":"PAYLOAD","TLE_LINE2":"2 51116  53.2176  57.3996 0002000  37.6213 183.0846 15.08839757 19860","REV_AT_EPOCH":"1986","DECAY_DATE":null,"EPOCH":"2022-05-17T20:00:01.000224","TLE_LINE1":"1 51116U 22005N   22137.83334491 -.00004844  00000-0 -28643-3 0  9991"},{"INCLINATION":"53.2174","TIME_SYSTEM":"UTC","ECCENTRICITY":"0.00015390","COUNTRY_CODE":"US","LAUNCH_DATE":"2022-01-19","PERIOD":"95.356","RCS_SIZE":"LARGE","NORAD_CAT_ID":"51117","ELEMENT_SET_NO":"999","BSTAR":"-0.04189200000000","MEAN_MOTION_DDOT":"0.0000000000000","MEAN_MOTION_DOT":"-0.00647696","MEAN_ELEMENT_THEORY":"SGP4","OBJECT_ID":"2022-005P","REF_FRAME":"TEME","EPHEMERIS_TYPE":"0","ARG_OF_PERICENTER":"50.5036","SITE":"AFETR","OBJECT_TYPE":"PAYLOAD","TLE_LINE2":"2 51117  53.2174  58.5286 0001539  50.5036  49.3808 15.10127432  1302","REV_AT_EPOCH":"130","DECAY_DATE":null,"EPOCH":"2022-05-17T14:00:01.999872","TLE_LINE1":"1 51117U 22005P   22137.58335648 -.00647696  00000-0 -41892-1 0  9996","APOAPSIS":"536.877","CENTER_NAME":"EARTH","FILE":"3450137","OBJECT_NAME":"STARLINK-3391","GP_ID":"203785114","CLASSIFICATION_TYPE":"U","RA_OF_ASC_NODE":"58.5286","SEMIMAJOR_AXIS":"6913.948","MEAN_MOTION":"15.10127432","MEAN_ANOMALY":"49.3808","PERIAPSIS":"534.749"},{"TIME_SYSTEM":"UTC","INCLINATION":"53.2174","BSTAR":"-0.04265900000000","MEAN_MOTION_DDOT":"0.0000000000000","ELEMENT_SET_NO":"999","MEAN_MOTION_DOT":"-0.00649123","OBJECT_ID":"2022-005Q","MEAN_ELEMENT_THEORY":"SGP4","COUNTRY_CODE":"US","ECCENTRICITY":"0.00014760","RCS_SIZE":"LARGE","NORAD_CAT_ID":"51118","PERIOD":"95.392","LAUNCH_DATE":"2022-01-19","EPOCH":"2022-05-17T14:00:01.999872","DECAY_DATE":null,"TLE_LINE1":"1 51118U 22005Q   22137.58335648 -.00649123  00000-0 -42659-1 0  9996","EPHEMERIS_TYPE":"0","REF_FRAME":"TEME","SITE":"AFETR","ARG_OF_PERICENTER":"50.6890","OBJECT_TYPE":"PAYLOAD","REV_AT_EPOCH":"130","TLE_LINE2":"2 51118  53.2174  58.5247 0001476  50.6890 310.7067 15.09556535  1309","RA_OF_ASC_NODE":"58.5247","SEMIMAJOR_AXIS":"6915.691","MEAN_ANOMALY":"310.7067","PERIAPSIS":"536.535","MEAN_MOTION":"15.09556535","CENTER_NAME":"EARTH","APOAPSIS":"538.577","OBJECT_NAME":"STARLINK-3394","GP_ID":"203783864","CLASSIFICATION_TYPE":"U","FILE":"3450137"},{"SEMIMAJOR_AXIS":"6913.599","RA_OF_ASC_NODE":"58.5293","MEAN_MOTION":"15.10241762","MEAN_ANOMALY":"72.6449","PERIAPSIS":"534.330","APOAPSIS":"536.598","CENTER_NAME":"EARTH","FILE":"3450137","OBJECT_NAME":"STARLINK-3390","GP_ID":"203784602","CLASSIFICATION_TYPE":"U","DECAY_DATE":null,"EPOCH":"2022-05-17T14:00:01.999872","TLE_LINE1":"1 51119U 22005R   22137.58335648 -.00647741  00000-0 -41762-1 0  9995","SITE":"AFETR","ARG_OF_PERICENTER":"46.8341","REF_FRAME":"TEME","EPHEMERIS_TYPE":"0","TLE_LINE2":"2 51119  53.2174  58.5293 0001640  46.8341  72.6449 15.10241762  1305","REV_AT_EPOCH":"130","OBJECT_TYPE":"PAYLOAD","MEAN_MOTION_DOT":"-0.00647741","ELEMENT_SET_NO":"999","MEAN_MOTION_DDOT":"0.0000000000000","BSTAR":"-0.04176200000000","OBJECT_ID":"2022-005R","MEAN_ELEMENT_THEORY":"SGP4","LAUNCH_DATE":"2022-01-19","NORAD_CAT_ID":"51119","RCS_SIZE":"LARGE","PERIOD":"95.349","ECCENTRICITY":"0.00016400","COUNTRY_CODE":"US","INCLINATION":"53.2174","TIME_SYSTEM":"UTC"},{"ELEMENT_SET_NO":"999","BSTAR":"-0.04146400000000","MEAN_MOTION_DDOT":"0.0000000000000","MEAN_MOTION_DOT":"-0.00647256","MEAN_ELEMENT_THEORY":"SGP4","OBJECT_ID":"2022-005S","ECCENTRICITY":"0.00018390","COUNTRY_CODE":"US","LAUNCH_DATE":"2022-01-19","PERIOD":"95.335","RCS_SIZE":"LARGE","NORAD_CAT_ID":"51120","TIME_SYSTEM":"UTC","INCLINATION":"53.2174","RA_OF_ASC_NODE":"58.5304","SEMIMAJOR_AXIS":"6912.902","MEAN_MOTION":"15.10470129","MEAN_ANOMALY":"117.4520","PERIAPSIS":"533.496","CENTER_NAME":"EARTH","APOAPSIS":"536.039","FILE":"3450137","GP_ID":"203784864","OBJECT_NAME":"STARLINK-3398","CLASSIFICATION_TYPE":"U","DECAY_DATE":null,"EPOCH":"2022-05-17T14:00:01.999872","TLE_LINE1":"1 51120U 22005S   22137.58335648 -.00647256  00000-0 -41464-1 0  9997","REF_FRAME":"TEME","EPHEMERIS_TYPE":"0","SITE":"AFETR","ARG_OF_PERICENTER":"41.1133","OBJECT_TYPE":"PAYLOAD","TLE_LINE2":"2 51120  53.2174  58.5304 0001839  41.1133 117.4520 15.10470129  1306","REV_AT_EPOCH":"130"},{"RA_OF_ASC_NODE":"58.5279","SEMIMAJOR_AXIS":"6914.297","MEAN_MOTION":"15.10013137","MEAN_ANOMALY":"34.4565","PERIAPSIS":"535.059","APOAPSIS":"537.265","CENTER_NAME":"EARTH","FILE":"3450137","GP_ID":"203785604","CLASSIFICATION_TYPE":"U","OBJECT_NAME":"STARLINK-3399","DECAY_DATE":null,"EPOCH":"2022-05-17T14:00:01.999872","TLE_LINE1":"1 51121U 22005T   22137.58335648 -.00647704  00000-0 -42025-1 0  9990","REF_FRAME":"TEME","EPHEMERIS_TYPE":"0","ARG_OF_PERICENTER":"45.7989","SITE":"AFETR","OBJECT_TYPE":"PAYLOAD","TLE_LINE2":"2 51121  53.2174  58.5279 0001595  45.7989  34.4565 15.10013137  1305","REV_AT_EPOCH":"130","ELEMENT_SET_NO":"999","MEAN_MOTION_DDOT":"0.0000000000000","BSTAR":"-0.04202500000000","MEAN_MOTION_DOT":"-0.00647704","OBJECT_ID":"2022-005T","MEAN_ELEMENT_THEORY":"SGP4","ECCENTRICITY":"0.00015950","COUNTRY_CODE":"US","LAUNCH_DATE":"2022-01-19","PERIOD":"95.363","RCS_SIZE":"LARGE","NORAD_CAT_ID":"51121","INCLINATION":"53.2174","TIME_SYSTEM":"UTC"},{"COUNTRY_CODE":"US","ECCENTRICITY":"0.00017180","PERIOD":"95.342","RCS_SIZE":"LARGE","NORAD_CAT_ID":"51122","LAUNCH_DATE":"2022-01-19","OBJECT_ID":"2022-005U","MEAN_ELEMENT_THEORY":"SGP4","BSTAR":"-0.04160800000000","MEAN_MOTION_DDOT":"0.0000000000000","ELEMENT_SET_NO":"999","MEAN_MOTION_DOT":"-0.00647426","INCLINATION":"53.2174","TIME_SYSTEM":"UTC","GP_ID":"203784354","CLASSIFICATION_TYPE":"U","OBJECT_NAME":"STARLINK-3373","FILE":"3450137","CENTER_NAME":"EARTH","APOAPSIS":"536.303","MEAN_ANOMALY":"94.3078","PERIAPSIS":"533.928","MEAN_MOTION":"15.10355898","RA_OF_ASC_NODE":"58.5299","SEMIMAJOR_AXIS":"6913.251","OBJECT_TYPE":"PAYLOAD","REV_AT_EPOCH":"130","TLE_LINE2":"2 51122  53.2174  58.5299 0001718  44.7315  94.3078 15.10355898  1304","EPHEMERIS_TYPE":"0","REF_FRAME":"TEME","SITE":"AFETR","ARG_OF_PERICENTER":"44.7315","TLE_LINE1":"1 51122U 22005U   22137.58335648 -.00647426  00000-0 -41608-1 0  9998","EPOCH":"2022-05-17T14:00:01.999872","DECAY_DATE":null},{"RCS_SIZE":"LARGE","NORAD_CAT_ID":"51123","PERIOD":"95.327","LAUNCH_DATE":"2022-01-19","COUNTRY_CODE":"US","ECCENTRICITY":"0.00018340","MEAN_MOTION_DOT":"-0.00646979","MEAN_MOTION_DDOT":"0.0000000000000","BSTAR":"-0.04131400000000","ELEMENT_SET_NO":"999","MEAN_ELEMENT_THEORY":"SGP4","OBJECT_ID":"2022-005V","TIME_SYSTEM":"UTC","INCLINATION":"53.2174","CENTER_NAME":"EARTH","APOAPSIS":"535.687","GP_ID":"203784113","CLASSIFICATION_TYPE":"U","OBJECT_NAME":"STARLINK-3392","FILE":"3450137","SEMIMAJOR_AXIS":"6912.554","RA_OF_ASC_NODE":"58.5308","PERIAPSIS":"533.151","MEAN_ANOMALY":"134.8645","MEAN_MOTION":"15.10584308","SITE":"AFETR","ARG_OF_PERICENTER":"43.1924","EPHEMERIS_TYPE":"0","REF_FRAME":"TEME","REV_AT_EPOCH":"130","TLE_LINE2":"2 51123  53.2174  58.5308 0001834  43.1924 134.8645 15.10584308  1304","OBJECT_TYPE":"PAYLOAD","EPOCH":"2022-05-17T14:00:01.999872","DECAY_DATE":null,"TLE_LINE1":"1 51123U 22005V   22137.58335648 -.00646979  00000-0 -41314-1 0  9995"},{"GP_ID":"203785354","CLASSIFICATION_TYPE":"U","OBJECT_NAME":"STARLINK-3389","FILE":"3450137","CENTER_NAME":"EARTH","APOAPSIS":"540.869","PERIAPSIS":"538.634","MEAN_ANOMALY":"252.8682","MEAN_MOTION":"15.08838077","SEMIMAJOR_AXIS":"6917.886","RA_OF_ASC_NODE":"68.5138","REV_AT_EPOCH":"130","TLE_LINE2":"2 51124  53.2184  68.5138 0001615  54.4111 252.8682 15.08838077  1302","OBJECT_TYPE":"PAYLOAD","SITE":"AFETR","ARG_OF_PERICENTER":"54.4111","EPHEMERIS_TYPE":"0","REF_FRAME":"TEME","TLE_LINE1":"1 51124U 22005W   22137.58335648 -.00010901  00000-0 -66788-3 0  9990","EPOCH":"2022-05-17T14:00:01.999872","DECAY_DATE":null,"RCS_SIZE":"LARGE","NORAD_CAT_ID":"51124","PERIOD":"95.438","LAUNCH_DATE":"2022-01-19","COUNTRY_CODE":"US","ECCENTRICITY":"0.00016150","OBJECT_ID":"2022-005W","MEAN_ELEMENT_THEORY":"SGP4","MEAN_MOTION_DOT":"-0.00010901","MEAN_MOTION_DDOT":"0.0000000000000","BSTAR":"-0.00066788000000","ELEMENT_SET_NO":"999","TIME_SYSTEM":"UTC","INCLINATION":"53.2184"}];
